[{"OBJECT_NAME":"STARLINK-5878","OBJECT_ID":"2023-037AT","EPOCH":"2026-03-09T23:11:06.774432","MEAN_MOTION":14.98332254,"ECCENTRICITY":0.00025462,"INCLINATION":69.9981,"RA_OF_ASC_NODE":263.7959,"ARG_OF_PERICENTER":271.1445,"MEAN_ANOMALY":88.9423,"EPHEMERIS_TYPE":0,"CLASSIFICATION_TYPE":"U","NORAD_CAT_ID":55955,"ELEMENT_SET_NO":999,"REV_AT_EPOCH":16451,"BSTAR":-8.99554e-7,"MEAN_MOTION_DOT":-1.04e-6,"MEAN_MOTION_DDOT":0},{"OBJECT_NAME":"DMSP 5D-2 F12 DEB","OBJECT_ID":"1994-057D","EPOCH":"2026-03-09T16:53:24.857088","MEAN_MOTION":14.9537003,"ECCENTRICITY":0.00045084,"INCLINATION":98.0659,"RA_OF_ASC_NODE":110.2499,"ARG_OF_PERICENTER":136.2971,"MEAN_ANOMALY":344.9264,"EPHEMERIS_TYPE":0,"CLASSIFICATION_TYPE":"U","NORAD_CAT_ID":23250,"ELEMENT_SET_NO":999,"REV_AT_EPOCH":65299,"BSTAR":0.0022486615,"MEAN_MOTION_DOT":0.00024839,"MEAN_MOTION_DDOT":0}]
